134P/Kowal-Vavrova,e,4.3491,202.0834,18.8078,6.252582,0.0630398,0.58771987,110.8791,03/16.0/2019,2000,g 11.5,4.0
# From MPC 92985
135P/Shoemaker-Levy,e,6.0628,213.0737,22.1568,3.804937,0.1327953,0.29577588,211.6228,03/16.0/2019,2000,g  7.0,8.0
# From MPC101100
136P/Mueller,e,9.4200,137.4347,224.9614,4.198424,0.1145710,0.29141809,116.8064,03/16.0/2019,2000,g 11.0,4.0
# From MPC 75719
137P/Shoemaker-Levy,e,4.8539,233.0807,141.0142,4.519536,0.1025802,0.57291892,9.5001,03/16.0/2019,2000,g 11.0,4.0
# From MPC102101
138P/Shoemaker-Levy,e,10.0896,309.3321,95.6154,3.623587,0.1428881,0.53007978,353.1748,03/16.0/2019,2000,g 15.0,6.0
# From MPC108598
139P/Vaisala-Oterma,e,2.3333,242.2100,165.9547,4.528132,0.1022882,0.24612591,47.1337,03/16.0/2019,2000,g  9.5,4.0
# From MPC 92985
140P/Bowell-Skiff,e,3.8228,343.3611,172.9622,6.443162,0.0602637,0.69117714,79.3110,03/16.0/2019,2000,g 11.5,6.0
# From MPC105242
141P/Machholz,e,13.9918,241.8668,153.6823,3.051760,0.1848751,0.73747889,241.7192,03/16.0/2019,2000,g 12.0,12.0
# From MPC 71683
142P/Ge-Wang,e,12.2563,176.2364,174.1840,4.986246,0.0885204,0.49821466,290.0731,03/16.0/2019,2000,g  8.5,6.0
# From MPC 94676
143P/Kowal-Mrkos,e,4.6976,245.3001,320.7243,4.295758,0.1106992,0.41086700,34.6665,03/16.0/2019,2000,g 13.5,2.0
# From MPC104795
144P/Kushida,e,4.1759,245.4578,215.4229,3.831396,0.1314221,0.63636475,121.4148,03/16.0/2019,2000,g  8.5,8.0
# From MPC108598
145P/Shoemaker-Levy,e,11.2603,26.8027,10.3228,4.143058,0.1168752,0.54057688,65.5929,03/16.0/2019,2000,g 13.5,4.0
# From MPC 10028
146P/Shoemaker-LINEAR,e,23.0738,53.4516,316.9158,4.035435,0.1215818,0.64591773,120.2564,03/16.0/2019,2000,g 15.0,4.0
# From MPC 75720
147P/Kushida-Muramatsu,e,2.3800,93.3553,350.2522,3.855694,0.1301818,0.27048537,143.9931,03/16.0/2019,2000,g 14.0,4.0
# From MPC 89730
148P/Anderson-LINEAR,e,3.6878,89.7143,6.4549,3.663982,0.1405316,0.54180798,192.6354,03/16.0/2019,2000,g 16.0,2.0
# From MPC 75720
149P/Mueller,e,29.7708,145.2337,43.8004,4.316501,0.1099022,0.38988957,2.9667,03/16.0/2019,2000,g  8.0,8.0
# From MPC 75720
150P/LONEOS,e,18.5084,272.4088,245.6261,3.880733,0.1289239,0.54655376,124.3484,03/16.0/2019,2000,g 13.5,4.0
# From MPC 95214
151P/Helin,e,4.7231,143.1420,216.1052,5.767957,0.0711494,0.57215348,89.2940,03/16.0/2019,2000,g 10.0,6.0
# From MPC 79346
152P/Helin-Lawrence,e,9.8797,91.8701,163.6682,4.484811,0.1037738,0.30912300,252.7582,03/16.0/2019,2000,g 11.5,4.0
# From MPC 46101
153P/Ikeya-Zhang,e,27.7107,93.0499,35.1786,51.15580,0.0026938,0.98979324,0.0000,03/16.7779/2002,2000,g  7.0,4.0
# From MPC 87068
154P/Brewington,e,17.6228,342.9834,47.9124,4.804430,0.0935925,0.67469664,180.3208,03/16.0/2019,2000,g  2.5,12.0
# From MPC 75720
155P/Shoemaker,e,6.3958,97.1991,14.6802,6.589185,0.0582715,0.72657469,345.7688,03/16.0/2019,2000,g 10.0,4.8
# From MPC105242
156P/Russell-LINEAR,e,17.4262,35.8454,359.9811,3.464307,0.1528550,0.61685150,266.5033,03/16.0/2019,2000,g 15.5,2.0
# From MPC104795
157P/Tritton,e,7.5214,297.8308,150.5581,3.389456,0.1579462,0.61071467,158.4688,03/16.0/2019,2000,g 10.0,4.0
# From MPC 10028
158P/Kowal-LINEAR,e,7.8658,136.6303,239.8650,4.800478,0.0937081,0.01810925,219.1290,03/16.0/2019,2000,g  9.0,4.0
# From MPC 75721
159P/LONEOS,e,23.4619,55.0230,4.7223,5.860885,0.0694639,0.38150700,20.6617,03/16.0/2019,2000,g 10.0,4.0
# From MPC102101
160P/LINEAR,e,15.6109,333.3981,12.6028,3.774648,0.1343970,0.52648535,324.8825,03/16.0/2019,2000,g 15.5,2.0
# From MPC 75721
161P/Hartley-IRAS,e,95.6686,1.3506,46.9097,7.726962,0.0458871,0.83455465,230.8225,03/16.0/2019,2000,g  8.5,6.0
# From MPC105242
162P/Siding Spring,e,27.6301,31.0413,357.1012,3.088892,0.1815516,0.58385493,245.1712,03/16.0/2019,2000,g 12.0,4.0
# From MPC102101
163P/NEAT,e,12.7076,102.0924,349.7111,3.770938,0.1345953,0.45197622,340.8515,03/16.0/2019,2000,g 14.5,4.0
# From MPC106349
164P/Christensen,e,16.2532,88.3067,325.9122,3.660468,0.1407341,0.53964677,40.6196,03/16.0/2019,2000,g 11.0,4.0
# From MPC 75721
165P/LINEAR,e,15.9026,0.6421,126.4017,17.91924,0.0129935,0.61538221,89.1984,03/16.0/2019,2000,g 11.5,2.0
# From MPC 75722
166P/NEAT,e,15.3576,64.5381,321.5968,13.85309,0.0191154,0.38053670,117.8324,03/16.0/2019,2000,g  5.5,4.0
# From MPC 75722
167P/CINEOS,e,19.1169,295.6849,343.7822,16.16038,0.0151714,0.27327860,99.1555,03/16.0/2019,2000,g  9.5,2.0
# From MPC102101
168P/Hergenrother,e,21.6113,355.4736,14.9898,3.581107,0.1454381,0.62053108,339.3272,03/16.0/2019,2000,g 15.5,4.0
# From MPC 94676
169P/NEAT,e,11.2948,176.0855,218.0880,2.601920,0.2348352,0.76796024,75.2471,03/16.0/2019,2000,g 16.0,2.0
# From MPC 89012
170P/Christensen,e,10.1246,142.9165,225.7287,4.198188,0.1145807,0.30311628,188.2279,03/16.0/2019,2000,g 12.0,4.0
# From MPC102102
171P/Spahr,e,21.9335,101.6959,347.1470,3.558408,0.1468319,0.50193392,8.9995,03/16.0/2019,2000,g 13.5,4.0
# From MPC 93588
172P/Yeung,e,11.2366,30.8900,209.2459,4.208096,0.1141762,0.20662260,83.6200,03/16.0/2019,2000,g 13.0,4.0
# From MPC 75722
173P/Mueller,e,16.4966,100.4053,29.5241,5.696718,0.0724881,0.26062765,286.8481,03/16.0/2019,2000,g  7.5,4.0
# From MPC 92985
174P/Echeclus,e,4.3435,173.3076,162.8020,10.68973,0.0282003,0.45637605,40.1700,03/16.0/2019,2000,g  9.4,2.0
# From MPC102102
175P/Hergenrother,e,6.0770,123.5333,56.1825,3.428101,0.1552829,0.43223830,329.1359,03/16.0/2019,2000,g 14.0,4.0
# From MPC 88331
176P/LINEAR,e,0.2347,345.8783,35.2546,3.193908,0.1726715,0.19275876,126.8371,03/16.0/2019,2000,g 15.1,2.0
# From MPC 75723
177P/Barnard,e,31.3330,272.3504,60.2072,24.35156,0.0082019,0.95473654,37.6080,03/16.0/2019,2000,g 15.0,4.0
# From MPC105242
178P/Hug-Bell,e,11.0834,102.8728,297.6065,3.636415,0.1421327,0.48181770,290.5924,03/16.0/2019,2000,g 13.5,4.0
# From MPC 75723
179P/Jedicke,e,19.8920,115.5203,296.2784,5.948203,0.0679400,0.30534861,280.6469,03/16.0/2019,2000,g  2.5,8.0
# From MPC 10028
180P/NEAT,e,16.8685,84.5544,94.9289,3.859296,0.1299996,0.35396655,154.6913,03/16.0/2019,2000,g 11.0,4.0
# From MPC 89012
181P/Shoemaker-Levy,e,17.4853,35.4112,336.2852,3.869434,0.1294890,0.70020646,226.5779,03/16.0/2019,2000,g 11.5,4.0
# From MPC 88331
182P/LONEOS,e,16.2476,72.7927,53.7885,2.958917,0.1936444,0.66021339,136.1786,03/16.0/2019,2000,g 18.0,4.0
# From MPC110085
183P/Korlevic-Juric,e,18.7184,5.7937,161.9737,4.501350,0.1032024,0.13920739,50.0192,03/16.0/2019,2000,g 12.5,2.0
# From MPC105242
184P/Lovas,e,4.5775,173.4367,186.4691,3.789067,0.1336305,0.55205355,281.1423,03/16.0/2019,2000,g 13.5,4.0
# From MPC109593
185P/Petriew,e,13.9940,214.0991,181.9090,3.100577,0.1805262,0.69880425,74.4448,03/16.0/2019,2000,g 15.0,4.0
# From MPC 10028
186P/Garradd,e,28.4078,327.0891,283.7684,5.008815,0.0879228,0.12364983,355.6177,03/16.0/2019,2000,g  7.5,4.0
# From MPC104795
187P/LINEAR,e,13.6272,109.9191,132.8532,4.585160,0.1003858,0.15386847,29.7968,03/16.0/2019,2000,g  9.0,4.0
# From MPC106349
188P/LINEAR-Mueller,e,10.5133,358.9622,26.6700,4.379242,0.1075488,0.41469286,81.4485,03/16.0/2019,2000,g 11.5,4.0
# From MPC106349
189P/NEAT,e,20.0714,281.7407,16.2323,2.947501,0.1947705,0.58848445,114.3202,03/16.0/2019,2000,g 19.0,4.0
# From MPC 75724
190P/Mueller,e,2.1731,335.5546,50.3550,4.238015,0.1129693,0.52025329,121.1817,03/16.0/2019,2000,g 13.0,4.0
# From MPC 92277
191P/McNaught,e,8.8108,98.3604,284.0026,3.638772,0.1419946,0.39198391,256.1012,03/16.0/2019,2000,g 13.0,4.0
# From MPC 75724
192P/Shoemaker-Levy,e,24.5152,51.6691,312.8679,6.479121,0.0597627,0.77214851,246.5406,03/16.0/2019,2000,g 15.0,4.0
# From MPC 91618
193P/LINEAR-NEAT,e,10.6870,335.1950,8.3087,3.574326,0.1458522,0.39377779,229.5812,03/16.0/2019,2000,g 14.0,4.0
# From MPC 98566
194P/LINEAR,e,11.1406,351.8538,130.6243,3.991413,0.1235988,0.57605894,137.0622,03/16.0/2019,2000,g 16.0,4.0
# From MPC 75724
195P/Hill,e,36.3431,243.0833,249.6486,6.492497,0.0595781,0.31382814,221.2633,03/16.0/2019,2000,g  8.5,4.0
# From MPC 92985
196P/Tichy,e,19.3263,24.2431,12.4228,3.794002,0.1333699,0.42949324,183.3460,03/16.0/2019,2000,g 13.5,4.0
# From MPC 94676
197P/LINEAR,e,25.5566,66.3929,188.7062,2.866385,0.2030964,0.63012052,83.5017,03/16.0/2019,2000,g 16.5,2.0
# From MPC 65937
198P/ODAS,e,1.3379,358.2735,69.2965,3.602660,0.1441349,0.44320898,13.2751,03/16.0/2019,2000,g 12.5,4.0
# From MPC 75725
199P/Shoemaker,e,24.9351,92.3992,191.4753,5.903532,0.0687126,0.50570651,249.6853,03/16.0/2019,2000,g 10.0,4.0
# From MPC111774
200P/Larsen,e,12.1058,234.8008,133.9758,4.932780,0.0899635,0.33156490,347.9016,03/16.0/2019,2000,g  9.0,4.0
# From MPC 93588
201P/LONEOS,e,6.5124,31.5605,28.6631,3.405534,0.1568290,0.63541873,234.6952,03/16.0/2019,2000,g 14.0,4.0
# From MPC103849
202P/Scotti,e,2.1418,193.2089,260.4246,3.844224,0.1307649,0.32722162,130.4576,03/16.0/2019,2000,g 13.5,4.0
# From MPC112393
203P/Korlevic,e,2.9732,290.3551,154.9386,4.668687,0.0977039,0.31472780,325.2769,03/16.0/2019,2000,g 14.5,2.0
# From MPC 98566
204P/LINEAR-NEAT,e,6.6150,108.8343,354.8521,3.643270,0.1417317,0.47577547,168.5574,03/16.0/2019,2000,g 14.0,4.0
# From MPC 98566
205P/Giacobini,e,15.2920,179.6023,154.1594,3.544080,0.1477233,0.56730591,207.1239,03/16.0/2019,2000,g 13.0,4.0
# From MPC 75725
206P/Barnard-Boattini,e,33.7022,202.5280,189.3775,3.486120,0.1514226,0.55176119,251.0601,03/16.0/2019,2000,g 19.0,4.0
# From MPC 75725
207P/NEAT,e,10.1548,200.4078,271.2816,3.869377,0.1294919,0.75886239,127.9147,03/16.0/2019,2000,g 16.0,4.0
# From MPC101100
208P/McMillan,e,4.4079,36.3967,310.3816,4.049435,0.1209518,0.37256009,119.4188,03/16.0/2019,2000,g 12.5,4.0
# From MPC 90771
209P/LINEAR,e,21.2586,62.7717,152.4983,2.961291,0.1934115,0.67327824,342.8240,03/16.0/2019,2000,g 17.0,2.0
# From MPC105242
210P/Christensen,e,10.2572,93.8292,345.8491,3.169404,0.1746778,0.83293623,292.0500,03/16.0/2019,2000,g 13.5,4.0
# From MPC 96868
211P/Hill,e,18.9099,117.1311,4.1662,3.552383,0.1472056,0.34102694,168.4302,03/16.0/2019,2000,g 12.5,4.0
# From MPC104795
212P/NEAT,e,22.5582,98.7069,14.9050,3.905681,0.1276906,0.58244883,116.9578,03/16.0/2019,2000,g 17.0,2.0
# From MPC110085
